[
    {
        "Altitude(m)": 716510.7995365054,
        "Argument of Periapsis(deg)": 0.004556048474650827,
        "Eccentricity": 0.0,
        "Inclination(deg)": 45.0,
        "Latitude(deg)": -41.829506844671144,
        "Longitude(deg)": 47.611254853765075,
        "Mean Anomaly(deg)": -109.93221334100762,
        "RAAN(deg)": 264.99569922341675,
        "Satellite Name": "Constellation 1 1181",
        "Satellite Number": 1181,
        "Semi-Major Axis(m)": 7083131.272910544,
        "Time(s)": 76
    },
    {
        "Altitude(m)": 716518.8813549554,
        "Argument of Periapsis(deg)": 0.004615996480896233,
        "Eccentricity": 0.0,
        "Inclination(deg)": 45.0,
        "Latitude(deg)": -41.84902947182923,
        "Longitude(deg)": 47.683923944171056,
        "Mean Anomaly(deg)": -109.87151220075776,
        "RAAN(deg)": 264.99564263425117,
        "Satellite Name": "Constellation 1 1181",
        "Satellite Number": 1181,
        "Semi-Major Axis(m)": 7083131.272910544,
        "Time(s)": 77
    },
    {
        "Altitude(m)": 716526.9417909338,
        "Argument of Periapsis(deg)": 0.004675944487141638,
        "Eccentricity": 0.0,
        "Inclination(deg)": 45.0,
        "Latitude(deg)": -41.8685006763396,
        "Longitude(deg)": 47.756639559207336,
        "Mean Anomaly(deg)": -109.81081106050787,
        "RAAN(deg)": 264.9955860450856,
        "Satellite Name": "Constellation 1 1181",
        "Satellite Number": 1181,
        "Semi-Major Axis(m)": 7083131.272910544,
        "Time(s)": 78
    },
    {
        "Altitude(m)": 716534.9808148643,
        "Argument of Periapsis(deg)": 0.004735892493387044,
        "Eccentricity": 0.0,
        "Inclination(deg)": 45.0,
        "Latitude(deg)": -41.88792039277936,
        "Longitude(deg)": 47.8294016361289,
        "Mean Anomaly(deg)": -109.75010992025793,
        "RAAN(deg)": 264.99552945592,
        "Satellite Name": "Constellation 1 1181",
        "Satellite Number": 1181,
        "Semi-Major Axis(m)": 7083131.272910544,
        "Time(s)": 79
    },
    {
        "Altitude(m)": 716542.9983972586,
        "Argument of Periapsis(deg)": 0.004795840499632449,
        "Eccentricity": 0.0,
        "Inclination(deg)": 45.0,
        "Latitude(deg)": -41.90728855579623,
        "Longitude(deg)": 47.90221011165195,
        "Mean Anomaly(deg)": -109.68940878000808,
        "RAAN(deg)": 264.9954728667545,
        "Satellite Name": "Constellation 1 1181",
        "Satellite Number": 1181,
        "Semi-Major Axis(m)": 7083131.272910544,
        "Time(s)": 80
    },
    {
        "Altitude(m)": 716550.9945086896,
        "Argument of Periapsis(deg)": 0.004855788505877855,
        "Eccentricity": 0.0,
        "Inclination(deg)": 45.0,
        "Latitude(deg)": -41.92660510010964,
        "Longitude(deg)": 47.97506492195388,
        "Mean Anomaly(deg)": -109.62870763975822,
        "RAAN(deg)": 264.9954162775889,
        "Satellite Name": "Constellation 1 1181",
        "Satellite Number": 1181,
        "Semi-Major Axis(m)": 7083131.272910544,
        "Time(s)": 81
    },
    {
        "Altitude(m)": 716558.9691198209,
        "Argument of Periapsis(deg)": 0.00491573651212326,
        "Eccentricity": 0.0,
        "Inclination(deg)": 45.0,
        "Latitude(deg)": -41.94586996051141,
        "Longitude(deg)": 48.047965834575535,
        "Mean Anomaly(deg)": -109.56800649950824,
        "RAAN(deg)": 264.9953596884233,
        "Satellite Name": "Constellation 1 1181",
        "Satellite Number": 1181,
        "Semi-Major Axis(m)": 7083131.272910544,
        "Time(s)": 82
    },
    {
        "Altitude(m)": 716566.9222013885,
        "Argument of Periapsis(deg)": 0.004975684518368666,
        "Eccentricity": 0.0,
        "Inclination(deg)": 45.0,
        "Latitude(deg)": -41.9650830718659,
        "Longitude(deg)": 48.12091312080725,
        "Mean Anomaly(deg)": -109.50730535925838,
        "RAAN(deg)": 264.99530309925774,
        "Satellite Name": "Constellation 1 1181",
        "Satellite Number": 1181,
        "Semi-Major Axis(m)": 7083131.272910544,
        "Time(s)": 83
    },
    {
        "Altitude(m)": 716574.8537242033,
        "Argument of Periapsis(deg)": 0.005035632524614072,
        "Eccentricity": 0.0,
        "Inclination(deg)": 45.0,
        "Latitude(deg)": -41.984244369112076,
        "Longitude(deg)": 48.19390654710814,
        "Mean Anomaly(deg)": -109.4466042190085,
        "RAAN(deg)": 264.99524651009216,
        "Satellite Name": "Constellation 1 1181",
        "Satellite Number": 1181,
        "Semi-Major Axis(m)": 7083131.272910544,
        "Time(s)": 84
    },
    {
        "Altitude(m)": 716582.7636591631,
        "Argument of Periapsis(deg)": 0.0050955805308594785,
        "Eccentricity": 0.0,
        "Inclination(deg)": 45.0,
        "Latitude(deg)": -42.0033537872636,
        "Longitude(deg)": 48.26694604749247,
        "Mean Anomaly(deg)": -109.38590307875857,
        "RAAN(deg)": 264.99518992092663,
        "Satellite Name": "Constellation 1 1181",
        "Satellite Number": 1181,
        "Semi-Major Axis(m)": 7083131.272910544,
        "Time(s)": 85
    },
    {
        "Altitude(m)": 716590.6519772301,
        "Argument of Periapsis(deg)": 0.005155528537104883,
        "Eccentricity": 0.0,
        "Inclination(deg)": 45.0,
        "Latitude(deg)": -42.02241126140969,
        "Longitude(deg)": 48.34003155543152,
        "Mean Anomaly(deg)": -109.32520193850871,
        "RAAN(deg)": 264.995133331761,
        "Satellite Name": "Constellation 1 1181",
        "Satellite Number": 1181,
        "Semi-Major Axis(m)": 7083131.272910544,
        "Time(s)": 86
    },
    {
        "Altitude(m)": 716598.5186494594,
        "Argument of Periapsis(deg)": 0.0052154765433502885,
        "Eccentricity": 0.0,
        "Inclination(deg)": 45.0,
        "Latitude(deg)": -42.04141672671612,
        "Longitude(deg)": 48.41316300385433,
        "Mean Anomaly(deg)": -109.26450079825877,
        "RAAN(deg)": 264.9950767425955,
        "Satellite Name": "Constellation 1 1181",
        "Satellite Number": 1181,
        "Semi-Major Axis(m)": 7083131.272910544,
        "Time(s)": 87
    },
    {
        "Altitude(m)": 716606.3636469734,
        "Argument of Periapsis(deg)": 0.005275424549595694,
        "Eccentricity": 0.0,
        "Inclination(deg)": 45.0,
        "Latitude(deg)": -42.06037011842597,
        "Longitude(deg)": 48.48634032514565,
        "Mean Anomaly(deg)": -109.20379965800885,
        "RAAN(deg)": 264.9950201534299,
        "Satellite Name": "Constellation 1 1181",
        "Satellite Number": 1181,
        "Semi-Major Axis(m)": 7083131.272910544,
        "Time(s)": 88
    },
    {
        "Altitude(m)": 716614.186940971,
        "Argument of Periapsis(deg)": 0.0053353725558411,
        "Eccentricity": 0.0,
        "Inclination(deg)": 45.0,
        "Latitude(deg)": -42.07927137186067,
        "Longitude(deg)": 48.559563283049464,
        "Mean Anomaly(deg)": -109.14309851775901,
        "RAAN(deg)": 264.9949635642643,
        "Satellite Name": "Constellation 1 1181",
        "Satellite Number": 1181,
        "Semi-Major Axis(m)": 7083131.272910544,
        "Time(s)": 89
    },
    {
        "Altitude(m)": 716621.9885027388,
        "Argument of Periapsis(deg)": 0.005395320562086505,
        "Eccentricity": 0.0,
        "Inclination(deg)": 45.0,
        "Latitude(deg)": -42.09812042242002,
        "Longitude(deg)": 48.632832145055644,
        "Mean Anomaly(deg)": -109.08239737750917,
        "RAAN(deg)": 264.9949069750988,
        "Satellite Name": "Constellation 1 1181",
        "Satellite Number": 1181,
        "Semi-Major Axis(m)": 7083131.272910544,
        "Time(s)": 90
    },
    {
        "Altitude(m)": 716629.7683036366,
        "Argument of Periapsis(deg)": 0.00545526856833191,
        "Eccentricity": 0.0,
        "Inclination(deg)": 45.0,
        "Latitude(deg)": -42.11691720558439,
        "Longitude(deg)": 48.70614667381816,
        "Mean Anomaly(deg)": -109.02169623725919,
        "RAAN(deg)": 264.99485038593315,
        "Satellite Name": "Constellation 1 1181",
        "Satellite Number": 1181,
        "Semi-Major Axis(m)": 7083131.272910544,
        "Time(s)": 91
    },
    {
        "Altitude(m)": 716637.5263151036,
        "Argument of Periapsis(deg)": 0.005515216574577317,
        "Eccentricity": 0.0,
        "Inclination(deg)": 45.0,
        "Latitude(deg)": -42.13566165691455,
        "Longitude(deg)": 48.779506799541636,
        "Mean Anomaly(deg)": -108.96099509700926,
        "RAAN(deg)": 264.9947937967676,
        "Satellite Name": "Constellation 1 1181",
        "Satellite Number": 1181,
        "Semi-Major Axis(m)": 7083131.272910544,
        "Time(s)": 92
    },
    {
        "Altitude(m)": 716645.2625086507,
        "Argument of Periapsis(deg)": 0.005575164580822722,
        "Eccentricity": 0.0,
        "Inclination(deg)": 45.0,
        "Latitude(deg)": -42.15435371205276,
        "Longitude(deg)": 48.85291245188421,
        "Mean Anomaly(deg)": -108.90029395675941,
        "RAAN(deg)": 264.99473720760204,
        "Satellite Name": "Constellation 1 1181",
        "Satellite Number": 1181,
        "Semi-Major Axis(m)": 7083131.272910544,
        "Time(s)": 93
    },
    {
        "Altitude(m)": 716652.9768558848,
        "Argument of Periapsis(deg)": 0.005635112587068129,
        "Eccentricity": 0.0,
        "Inclination(deg)": 45.0,
        "Latitude(deg)": -42.17299330672376,
        "Longitude(deg)": 48.92636355995746,
        "Mean Anomaly(deg)": -108.83959281650952,
        "RAAN(deg)": 264.99468061843646,
        "Satellite Name": "Constellation 1 1181",
        "Satellite Number": 1181,
        "Semi-Major Axis(m)": 7083131.272910544,
        "Time(s)": 94
    }
]